{"type":"FeatureCollection","features":[{"type":"Feature","geometry":{"type":"Point","coordinates":[2.5499439239501953,48.75771653820945]},"properties":{"id":443757,"TYPEQU":"D307","LIB":"Pharmacie","QUALITE_XY":"B","NB":1}},{"type":"Feature","geometry":{"type":"Point","coordinates":[2.5518321990966797,48.77604621898632]},"properties":{"id":450644,"TYPEQU":"D307","LIB":"Pharmacie","QUALITE_XY":"B","NB":1}},{"type":"Feature","geometry":{"type":"Point","coordinates":[2.5734615325927734,48.780457920722114]},"properties":{"id":450669,"TYPEQU":"D307","LIB":"Pharmacie","QUALITE_XY":"B","NB":1}},{"type":"Feature","geometry":{"type":"Point","coordinates":[2.513551712036133,48.748605782527164]},"properties":{"id":450451,"TYPEQU":"D307","LIB":"Pharmacie","QUALITE_XY":"B","NB":1}},{"type":"Feature","geometry":{"type":"Point","coordinates":[2.535867691040039,48.76365744531415]},"properties":{"id":443760,"TYPEQU":"D307","LIB":"Pharmacie","QUALITE_XY":"B","NB":1}},{"type":"Feature","geometry":{"type":"Point","coordinates":[2.5059127807617188,48.75296330658918]},"properties":{"id":450449,"TYPEQU":"D307","LIB":"Pharmacie","QUALITE_XY":"B","NB":1}},{"type":"Feature","geometry":{"type":"Point","coordinates":[2.5055694580078125,48.75403848167042]},"properties":{"id":450452,"TYPEQU":"D307","LIB":"Pharmacie","QUALITE_XY":"M","NB":1}},{"type":"Feature","geometry":{"type":"Point","coordinates":[2.5202465057373047,48.76988049909835]},"properties":{"id":443761,"TYPEQU":"D307","LIB":"Pharmacie","QUALITE_XY":"B","NB":1}},{"type":"Feature","geometry":{"type":"Point","coordinates":[2.5199031829833984,48.770559331040346]},"properties":{"id":443762,"TYPEQU":"D307","LIB":"Pharmacie","QUALITE_XY":"B","NB":1}},{"type":"Feature","geometry":{"type":"Point","coordinates":[2.5257396697998047,48.77468869429231]},"properties":{"id":443758,"TYPEQU":"D307","LIB":"Pharmacie","QUALITE_XY":"B","NB":1}},{"type":"Feature","geometry":{"type":"Point","coordinates":[2.519216537475586,48.771916967392]},"properties":{"id":443763,"TYPEQU":"D307","LIB":"Pharmacie","QUALITE_XY":"B","NB":1}},{"type":"Feature","geometry":{"type":"Point","coordinates":[2.509603500366211,48.77163412951268]},"properties":{"id":443759,"TYPEQU":"D307","LIB":"Pharmacie","QUALITE_XY":"B","NB":1}},{"type":"Feature","geometry":{"type":"Point","coordinates":[2.5217056274414062,48.781702176749974]},"properties":{"id":450651,"TYPEQU":"D307","LIB":"Pharmacie","QUALITE_XY":"B","NB":1}},{"type":"Feature","geometry":{"type":"Point","coordinates":[2.4951839447021484,48.78730094717275]},"properties":{"id":443730,"TYPEQU":"D307","LIB":"Pharmacie","QUALITE_XY":"B","NB":1}}]}